ESTCUBE 1               
1 39161U 13021C   21300.44668872  .00000299  00000-0  54654-4 0  9996
2 39161  97.9295  18.5528 0010660  87.8829 272.3614 14.72560332455177
FENGYUN 3C              
1 39260U 13052A   21300.14215563  .00000020  00000-0  31408-4 0  9996
2 39260  98.4845 334.7358 0010194 223.2981 136.7402 14.15882559418908
CASSIOPE                
1 39265U 13055A   21299.44419136  .00004999  00000-0  13929-3 0  9992
2 39265  80.9658 154.4408 0642346 289.0205  64.2473 14.33630299418751
ZACUBE-1 (TSHEPISOSAT)  
1 39417U 13066B   21300.21543085  .00000695  00000-0  92097-4 0  9995
2 39417  97.6082 277.8202 0060033  89.1929 271.6162 14.81639027428589
CINEMA-3 (KHUSAT-2)     
1 39426U 13066L   21299.86299528  .00000357  00000-0  63437-4 0  9994
2 39426  97.7704 245.3975 0102526 264.1448  94.8064 14.69761274425223
TRITON-1                
1 39427U 13066M   21300.31794959  .00000677  00000-0  11513-3 0  9998
2 39427  97.7879 241.6955 0111776 289.9976  68.9222 14.68365374424757
DELFI-N3XT              
1 39428U 13066N   21299.41689558  .00001172  00000-0  19158-3 0  9999
2 39428  97.7912 239.3328 0118382 306.2062  52.8243 14.68200930424181
GOMX-1                  
1 39430U 13066Q   21300.42328623  .00000457  00000-0  90474-4 0  9995
2 39430  97.8109 215.8998 0151729  59.3949 302.2112 14.59706427422296
BRITE-PL1 (LEM)         
1 39431U 13066R   21299.40943982  .00000128  00000-0  37929-4 0  9993
2 39431  97.7290 168.5050 0200819 233.2901 124.9700 14.47179388418515
ICUBE-1                 
1 39432U 13066S   21300.30132760  .00000957  00000-0  10127-3 0  9990
2 39432  97.4724 311.3745 0030737 325.4567  34.4655 14.91051902431166
HUMSAT-D                
1 39433U 13066T   21300.01114872  .00001308  00000-0  12971-3 0  9993
2 39433  97.4635 318.3197 0028853 303.1549  56.6904 14.93122505431551
VELOX-PII               
1 39438U 13066Y   21300.15600909  .00000475  00000-0  69453-4 0  9996
2 39438  97.6600 268.5561 0071166 135.4216 225.2750 14.78320459427664
FIRST-MOVE              
1 39439U 13066Z   21299.94514455  .00001349  00000-0  16678-3 0  9992
2 39439  97.6123 279.3232 0065946  87.1607 273.7153 14.82838910428528
CUBEBUG-2 (LO-74)       
1 39440U 13066AA  21299.87452451  .00000486  00000-0  73583-4 0  9993
2 39440  97.6937 262.8506 0079850 168.1284 192.1833 14.76359873427015
NEE-02 KRYSAOR          
1 39441U 13066AB  21299.42157524  .00000319  00000-0  52011-4 0  9996
2 39441  97.7037 259.7077 0081181 181.5137 178.5840 14.75268212425527
FUNCUBE-1 (AO-73)       
1 39444U 13066AE  21299.44301784  .00000810  00000-0  10405-3 0  9996
2 39444  97.5979 279.4709 0059053  81.5242 279.2660 14.82570278426844
HINCUBE                 
1 39445U 13066AF  21299.93844465  .00000811  00000-0  10457-3 0  9997
2 39445  97.5994 279.7821 0059076  81.8404 278.9506 14.82399220427042
UWE-3                   
1 39446U 13066AG  21299.89239103  .00000550  00000-0  78333-4 0  9998
2 39446  97.6539 269.6562 0070609 129.9293 230.8152 14.78899732426528
AIST-1 (RS-41)          
1 39492U 13078C   21300.48431470  .00000335  00000-0  33614-4 0  9995
2 39492  82.4156  99.4630 0020226 153.7427 206.4832 14.88097154425134
SPROUT                  
1 39770U 14029E   21300.29272707  .00001810  00000-0  19929-3 0  9997
2 39770  97.9261  51.5519 0009741 129.3525 230.8586 14.88793850402951
UNISAT-6                
1 40012U 14033C   21299.55242949  .00000493  00000-0  79658-4 0  9996
2 40012  97.6668 135.0408 0057548 194.9508 165.0003 14.74410909395514
BUGSAT-1 (TITA)         
1 40014U 14033E   21300.20456738  .00000498  00000-0  49755-4 0  9996
2 40014  98.1252 284.5025 0032868  88.8129 271.6853 14.95895440401261
DUCHIFAT-1              
1 40021U 14033M   21300.36770774  .00001266  00000-0  13193-3 0  9990
2 40021  97.9836 242.0378 0014226  88.9078 271.3769 14.91565979399947
NANOSATC-BR1            
1 40024U 14033Q   21299.47460257  .00000942  00000-0  10197-3 0  9995
2 40024  97.9597 235.6275 0013545  96.9356 263.3403 14.90627432399116
QB50P1                  
1 40025U 14033R   21299.81797768  .00000916  00000-0  10179-3 0  9995
2 40025  97.9387 230.8846 0013727 104.1976 256.0767 14.89599675399484
DTUSAT-2                
1 40030U 14033W   21299.79369645  .00000765  00000-0  86907-4 0  9992
2 40030  97.9194 227.0289 0013247 101.0229 259.2478 14.89134983399378
QB50P2                  
1 40032U 14033Y   21300.36526628  .00000871  00000-0  98278-4 0  9998
2 40032  97.9201 227.6096 0013167 100.3605 259.9097 14.89097370399442
POLYITAN-1              
1 40042U 14033AJ  21299.81841994  .00001113  00000-0  12278-3 0  9997
2 40042  97.9485 231.8123 0015973  96.5578 263.7458 14.89436370399370
TIGRISAT                
1 40043U 14033AK  21299.55754995  .00000383  00000-0  63098-4 0  9998
2 40043  97.6628 136.4204 0059264 192.6477 167.3249 14.74612207395455
AISAT                   
1 40054U 14034B   21299.42938189  .00000943  00000-0  13642-3 0  9997
2 40054  98.3384  97.0393 0012362 349.7465  10.3491 14.78618867394889
CANX-4                  
1 40055U 14034C   21300.35586785  .00000298  00000-0  52234-4 0  9998
2 40055  98.3260  85.2118 0014641  24.7527 335.4380 14.75113814394380
CANX-5                  
1 40056U 14034D   21299.41170399  .00000274  00000-0  48699-4 0  9997
2 40056  98.3259  84.2248 0014737  27.8847 332.3148 14.75105721385024
VELOX-I                 
1 40057U 14034E   21300.45846592  .00000567  00000-0  85738-4 0  9990
2 40057  98.3436  99.1971 0010712   2.1450 357.9811 14.78327223395044
METEOR-M 2              
1 40069U 14037A   21300.48861066 -.00000021  00000-0  95637-5 0  9998
2 40069  98.4517 323.7211 0004430 283.2636  76.8049 14.20690326378785
DX1                     
1 40071U 14037C   21300.48878985  .00000197  00000-0  32596-4 0  9996
2 40071  98.4370 152.2365 0008205 353.4259   6.6853 14.81561305394845
UKUBE-1                 
1 40074U 14037F   21300.54698424  .00000608  00000-0  78895-4 0  9993
2 40074  98.4105 163.7140 0004271 336.5230  23.5792 14.84686159395504
FIREBIRD 3              
1 40377U 15003B   21299.42889017  .00006899  00000-0  24180-3 0  9992
2 40377  99.1147 108.3580 0115063  93.6707 267.7691 15.23760131372725
FIREBIRD 4              
1 40378U 15003C   21299.46627171  .00006737  00000-0  23572-3 0  9993
2 40378  99.1151 108.5669 0115065  93.3132 268.1271 15.23827682372737
GRIFEX                  
1 40379U 15003D   21300.39293684  .00006856  00000-0  26868-3 0  9990
2 40379  99.1134  97.8382 0126525 125.6133 235.6961 15.19038103372219
CP10 (EXOCUBE)          
1 40380U 15003E   21300.00418748  .00005943  00000-0  24744-3 0  9997
2 40380  99.1150  91.2407 0132308 147.3874 213.5613 15.16560571371757
DEORBITSAIL             
1 40719U 15032E   21299.92883597  .00000879  00000-0  12986-3 0  9999
2 40719  97.8083 180.7820 0017368  44.5728 315.6877 14.77539594339397
NUDT-PHONESAT           
1 40900U 15049B   21300.49951336  .00006006  00000-0  22385-3 0  9993
2 40900  97.4169 313.8299 0012664  40.0280 116.9761 15.27745784338970
XW-2A                   
1 40903U 15049E   21300.48983403  .00005911  00000-0  12045-3 0  9991
2 40903  97.2198 354.5483 0010071 249.5906 223.2437 15.46570736343197
XW-2C                   
1 40906U 15049H   21300.56382355  .00001382  00000-0  72969-4 0  9992
2 40906  97.4911 301.3254 0016242  88.4514  32.6204 15.17095187337593
XW-2D                   
1 40907U 15049J   21300.52761946  .00001875  00000-0  96760-4 0  9998
2 40907  97.4895 301.1342 0015587  84.8813  32.2322 15.17466187337627
LILACSAT-2              
1 40908U 15049K   21300.55816981  .00000679  00000-0  40180-4 0  9998
2 40908  97.5106 298.8118 0017338 101.1200  13.9010 15.14646222337229
XW-2E                   
1 40909U 15049L   21300.52543674  .00002687  00000-0  12716-3 0  9996
2 40909  97.4686 305.3080 0014839  72.0219  59.1510 15.20131761337998
XW-2F                   
1 40910U 15049M   21300.56960647  .00002535  00000-0  12187-3 0  9999
2 40910  97.4753 304.4406 0015893  71.2222  45.5348 15.19627706337785
XW-2B                   
1 40911U 15049N   21300.53788559  .00001868  00000-0  96665-4 0  9999
2 40911  97.4892 301.8053 0015499  86.0153  31.3925 15.17378234337510
KAITUO 1B               
1 40912U 15049P   21300.54147025  .00003132  00000-0  13886-3 0  9997
2 40912  97.4440 308.7969 0015494  44.7926  74.8931 15.22250660338288
TIANWANG 1A (TW-1A)     
1 40928U 15051D   21300.37727064  .00008554  00000-0  16600-3 0  9995
2 40928  97.0679 322.2019 0009706 156.1624 262.3414 15.47843095342084
LAPAN-A2                
1 40931U 15052B   21299.43537380  .00000737  00000-0  13499-4 0  9993
2 40931   6.0010  38.2927 0013618  94.9275 265.2489 14.76698340328694
LQSAT                   
1 40958U 15057A   21300.44697172  .00000087  00000-0  20883-4 0  9990
2 40958  97.7861 351.6548 0018095 356.2395   3.8678 14.73209331325672
ATHENOXAT 1             
1 41168U 15077C   21300.38380645  .00004282  00000-0  17802-3 0  9990
2 41168  14.9931  10.6032 0010991 214.0950 225.1481 15.16432331324834
GALASSIA                
1 41170U 15077E   21299.41690897  .00005070  00000-0  21621-3 0  9997
2 41170  14.9904   8.1491 0011927 231.4587 128.4665 15.16564415324600
VELOX-II                
1 41171U 15077F   21299.71768851  .00003793  00000-0  17091-3 0  9993
2 41171  14.9916  68.6406 0008438  96.1446 263.9837 15.13019383324190
CHUBUSAT-2              
1 41338U 16012B   21300.30739112  .00000887  00000-0  61661-4 0  9998
2 41338  31.0032  67.3889 0013690   0.1588 359.9050 15.00657320312424
CHUBUSAT-3              
1 41339U 16012C   21300.51738648  .00000608  00000-0  40013-4 0  9994
2 41339  31.0115  63.1481 0013774   9.8794 350.2117 15.00793746312451
HORYU-4                 
1 41340U 16012D   21299.60478613  .00001338  00000-0  92824-4 0  9994
2 41340  31.0055  50.8584 0013742  35.1489 325.0051 15.02101200312526
